{
"type": "FeatureCollection",
"name": "districts",
"crs": { "type": "name", "properties": { "name": "urn:ogc:def:crs:OGC:1.3:CRS84" } },
"features": [
{ "type": "Feature", "properties": { "district": "Central", "population": 500000 }, "geometry": { "type": "Polygon", "coordinates": [ [ [ 80.2, 13.0 ], [ 80.3, 13.0 ], [ 80.3, 13.1 ], [ 80.2, 13.1 ], [ 80.2, 13.0 ] ] ] } },
{ "type": "Feature", "properties": { "district": "East", "population": 350000 }, "geometry": { "type": "Polygon", "coordinates": [ [ [ 80.3, 13.0 ], [ 80.4, 13.0 ], [ 80.4, 13.1 ], [ 80.3, 13.1 ], [ 80.3, 13.0 ] ] ] } },
{ "type": "Feature", "properties": { "district": "West", "population": 420000 }, "geometry": { "type": "Polygon", "coordinates": [ [ [ 80.2, 13.1 ], [ 80.3, 13.1 ], [ 80.3, 13.2 ], [ 80.2, 13.2 ], [ 80.2, 13.1 ] ] ] } }
]
}
